{
  "type": "FeatureCollection",
  "features": [
    {
      "type": "Feature",
      "properties": {
        "norad_id": 66561,
        "name": "STARLINK-35305",
        "group": "last-30-days",
        "lat": -42.24226069060284,
        "lon": 94.3257433334234,
        "alt_km": 355.4071111371413,
        "timestamp": "2025-12-04T05:42:42.158877+00:00",
        "meta_object_name": "STARLINK-35305",
        "meta_object_id": "2025-268E",
        "meta_epoch": "2025-12-03T22:00:03.000096",
        "meta_mean_motion": 15.73315518,
        "meta_eccentricity": 0.00013792,
        "meta_inclination": 42.999,
        "meta_ra_of_asc_node": 173.3146,
        "meta_arg_of_pericenter": 267.4279,
        "meta_mean_anomaly": 350.9419,
        "meta_ephemeris_type": 0,
        "meta_classification_type": "U",
        "meta_norad_cat_id": 66561,
        "meta_element_set_no": 999,
        "meta_rev_at_epoch": 320,
        "meta_bstar": -0.014885306,
        "meta_mean_motion_dot": -0.01851041,
        "meta_mean_motion_ddot": 0,
        "tle_line1": "1 66561U 25268E   25337.91670139 -.01851041  00000+0 -14885-1 0  9991",
        "tle_line2": "2 66561  42.9990 173.3146 0001379 267.4279 350.9419 15.73315518  3206"
      },
      "geometry": {
        "type": "Point",
        "coordinates": [
          94.3257433334234,
          -42.24226069060284
        ]
      }
    },
    {
      "type": "Feature",
      "properties": {
        "norad_id": 66562,
        "name": "STARLINK-35579",
        "group": "last-30-days",
        "lat": -42.506170281715704,
        "lon": 91.76468129858125,
        "alt_km": 355.40625583727797,
        "timestamp": "2025-12-04T05:42:42.158887+00:00",
        "meta_object_name": "STARLINK-35579",
        "meta_object_id": "2025-268F",
        "meta_epoch": "2025-12-03T22:00:03.000096",
        "meta_mean_motion": 15.7331828,
        "meta_eccentricity": 0.00014083,
        "meta_inclination": 42.999,
        "meta_ra_of_asc_node": 173.3191,
        "meta_arg_of_pericenter": 263.0048,
        "meta_mean_anomaly": 353.4451,
        "meta_ephemeris_type": 0,
        "meta_classification_type": "U",
        "meta_norad_cat_id": 66562,
        "meta_element_set_no": 999,
        "meta_rev_at_epoch": 325,
        "meta_bstar": -0.014903321,
        "meta_mean_motion_dot": -0.01853205,
        "meta_mean_motion_ddot": 0,
        "tle_line1": "1 66562U 25268F   25337.91670139 -.01853205  00000+0 -14903-1 0  9997",
        "tle_line2": "2 66562  42.9990 173.3191 0001408 263.0048 353.4451 15.73318280  3254"
      },
      "geometry": {
        "type": "Point",
        "coordinates": [
          91.76468129858125,
          -42.506170281715704
        ]
      }
    },
    {
      "type": "Feature",
      "properties": {
        "norad_id": 66563,
        "name": "STARLINK-35437",
        "group": "last-30-days",
        "lat": -41.922034771255184,
        "lon": 96.86011827306564,
        "alt_km": 355.31319825496485,
        "timestamp": "2025-12-04T05:42:42.158897+00:00",
        "meta_object_name": "STARLINK-35437",
        "meta_object_id": "2025-268G",
        "meta_epoch": "2025-12-03T22:00:03.000096",
        "meta_mean_motion": 15.73327786,
        "meta_eccentricity": 0.00014787,
        "meta_inclination": 42.999,
        "meta_ra_of_asc_node": 173.3096,
        "meta_arg_of_pericenter": 270.9251,
        "meta_mean_anomaly": 349.3517,
        "meta_ephemeris_type": 0,
        "meta_classification_type": "U",
        "meta_norad_cat_id": 66563,
        "meta_element_set_no": 999,
        "meta_rev_at_epoch": 325,
        "meta_bstar": -0.014995211,
        "meta_mean_motion_dot": -0.01863849,
        "meta_mean_motion_ddot": 0,
        "tle_line1": "1 66563U 25268G   25337.91670139 -.01863849  00000+0 -14995-1 0  9994",
        "tle_line2": "2 66563  42.9990 173.3096 0001478 270.9251 349.3517 15.73327786  3257"
      },
      "geometry": {
        "type": "Point",
        "coordinates": [
          96.86011827306564,
          -41.922034771255184
        ]
      }
    },
    {
      "type": "Feature",
      "properties": {
        "norad_id": 66564,
        "name": "STARLINK-35358",
        "group": "last-30-days",
        "lat": -41.545743107201375,
        "lon": 99.37246730625596,
        "alt_km": 355.35493443913947,
        "timestamp": "2025-12-04T05:42:42.158908+00:00",
        "meta_object_name": "STARLINK-35358",
        "meta_object_id": "2025-268H",
        "meta_epoch": "2025-12-03T22:00:03.000096",
        "meta_mean_motion": 15.73336935,
        "meta_eccentricity": 0.00014243,
        "meta_inclination": 42.9991,
        "meta_ra_of_asc_node": 173.3051,
        "meta_arg_of_pericenter": 265.4458,
        "meta_mean_anomaly": 356.739,
        "meta_ephemeris_type": 0,
        "meta_classification_type": "U",
        "meta_norad_cat_id": 66564,
        "meta_element_set_no": 999,
        "meta_rev_at_epoch": 320,
        "meta_bstar": -0.01504336,
        "meta_mean_motion_dot": -0.01869637,
        "meta_mean_motion_ddot": 0,
        "tle_line1": "1 66564U 25268H   25337.91670139 -.01869637  00000+0 -15043-1 0  9991",
        "tle_line2": "2 66564  42.9991 173.3051 0001424 265.4458 356.7390 15.73336935  3201"
      },
      "geometry": {
        "type": "Point",
        "coordinates": [
          99.37246730625596,
          -41.545743107201375
        ]
      }
    },
    {
      "type": "Feature",
      "properties": {
        "norad_id": 66565,
        "name": "STARLINK-35893",
        "group": "last-30-days",
        "lat": -41.11523867485438,
        "lon": 101.85243023189643,
        "alt_km": 355.22571176654856,
        "timestamp": "2025-12-04T05:42:42.158919+00:00",
        "meta_object_name": "STARLINK-35893",
        "meta_object_id": "2025-268J",
        "meta_epoch": "2025-12-03T22:00:03.000096",
        "meta_mean_motion": 15.73315615,
        "meta_eccentricity": 0.0001597,
        "meta_inclination": 42.9991,
        "meta_ra_of_asc_node": 173.2999,
        "meta_arg_of_pericenter": 270.6981,
        "meta_mean_anomaly": 353.4224,
        "meta_ephemeris_type": 0,
        "meta_classification_type": "U",
        "meta_norad_cat_id": 66565,
        "meta_element_set_no": 999,
        "meta_rev_at_epoch": 325,
        "meta_bstar": -0.014899846,
        "meta_mean_motion_dot": -0.01852804,
        "meta_mean_motion_ddot": 0,
        "tle_line1": "1 66565U 25268J   25337.91670139 -.01852804  00000+0 -14900-1 0  9991",
        "tle_line2": "2 66565  42.9991 173.2999 0001597 270.6981 353.4224 15.73315615  3259"
      },
      "geometry": {
        "type": "Point",
        "coordinates": [
          101.85243023189643,
          -41.11523867485438
        ]
      }
    },
    {
      "type": "Feature",
      "properties": {
        "norad_id": 66566,
        "name": "STARLINK-35871",
        "group": "last-30-days",
        "lat": -40.631955718530826,
        "lon": 104.29842689174069,
        "alt_km": 355.2193624127485,
        "timestamp": "2025-12-04T05:42:42.158930+00:00",
        "meta_object_name": "STARLINK-35871",
        "meta_object_id": "2025-268K",
        "meta_epoch": "2025-12-03T22:00:03.000096",
        "meta_mean_motion": 15.73317848,
        "meta_eccentricity": 0.00015955,
        "meta_inclination": 42.999,
        "meta_ra_of_asc_node": 173.2951,
        "meta_arg_of_pericenter": 269.9409,
        "meta_mean_anomaly": 356.0951,
        "meta_ephemeris_type": 0,
        "meta_classification_type": "U",
        "meta_norad_cat_id": 66566,
        "meta_element_set_no": 999,
        "meta_rev_at_epoch": 325,
        "meta_bstar": -0.014919112,
        "meta_mean_motion_dot": -0.0185504,
        "meta_mean_motion_ddot": 0,
        "tle_line1": "1 66566U 25268K   25337.91670139 -.01855040  00000+0 -14919-1 0  9997",
        "tle_line2": "2 66566  42.9990 173.2951 0001595 269.9409 356.0951 15.73317848  3257"
      },
      "geometry": {
        "type": "Point",
        "coordinates": [
          104.29842689174069,
          -40.631955718530826
        ]
      }
    },
    {
      "type": "Feature",
      "properties": {
        "norad_id": 66567,
        "name": "STARLINK-35825",
        "group": "last-30-days",
        "lat": -40.097411192884834,
        "lon": 106.7088653541123,
        "alt_km": 355.3280657291252,
        "timestamp": "2025-12-04T05:42:42.158940+00:00",
        "meta_object_name": "STARLINK-35825",
        "meta_object_id": "2025-268L",
        "meta_epoch": "2025-12-03T22:00:03.000096",
        "meta_mean_motion": 15.73318494,
        "meta_eccentricity": 0.00014475,
        "meta_inclination": 42.999,
        "meta_ra_of_asc_node": 173.2904,
        "meta_arg_of_pericenter": 266.2271,
        "meta_mean_anomaly": 1.725,
        "meta_ephemeris_type": 0,
        "meta_classification_type": "U",
        "meta_norad_cat_id": 66567,
        "meta_element_set_no": 999,
        "meta_rev_at_epoch": 325,
        "meta_bstar": -0.014905307,
        "meta_mean_motion_dot": -0.01853468,
        "meta_mean_motion_ddot": 0,
        "tle_line1": "1 66567U 25268L   25337.91670139 -.01853468  00000+0 -14905-1 0  9995",
        "tle_line2": "2 66567  42.9990 173.2904 0001447 266.2271   1.7250 15.73318494  3253"
      },
      "geometry": {
        "type": "Point",
        "coordinates": [
          106.7088653541123,
          -40.097411192884834
        ]
      }
    }
  ]
}